{
"type": "FeatureCollection",
"name": "mapillary_domain_traffic_lights",
"crs": { "type": "name", "properties": { "name": "urn:ogc:def:crs:OGC:1.3:CRS84" } },
"features": [
{ "type": "Feature", "properties": { "id": "337509217753846", "object_value": "object--traffic-light--pedestrians", "first_seen_at": "2020-08-01T14:58:34+0000", "last_seen_at": "2020-08-01T14:58:34+0000" }, "geometry": { "type": "Point", "coordinates": [ 36.815144, -1.2820674 ] } },
{ "type": "Feature", "properties": { "id": "337543791083722", "object_value": "object--traffic-light--general-upright", "first_seen_at": "2020-08-01T14:58:36+0000", "last_seen_at": "2020-08-01T14:58:36+0000" }, "geometry": { "type": "Point", "coordinates": [ 36.8147, -1.2819061 ] } },
{ "type": "Feature", "properties": { "id": "337577481080353", "object_value": "object--traffic-light--general-upright", "first_seen_at": "2020-08-01T14:58:33+0000", "last_seen_at": "2020-08-01T14:58:33+0000" }, "geometry": { "type": "Point", "coordinates": [ 36.81515, -1.2820575 ] } },
{ "type": "Feature", "properties": { "id": "337578047746963", "object_value": "object--traffic-light--general-upright", "first_seen_at": "2020-08-01T14:58:34+0000", "last_seen_at": "2020-08-01T14:58:34+0000" }, "geometry": { "type": "Point", "coordinates": [ 36.81499, -1.2818967 ] } },
{ "type": "Feature", "properties": { "id": "337589391079162", "object_value": "object--traffic-light--general-upright", "first_seen_at": "2020-08-01T14:58:34+0000", "last_seen_at": "2020-08-01T14:58:34+0000" }, "geometry": { "type": "Point", "coordinates": [ 36.815147, -1.2820661 ] } },
{ "type": "Feature", "properties": { "id": "337715991066502", "object_value": "object--traffic-light--general-upright", "first_seen_at": "2020-08-01T14:58:37+0000", "last_seen_at": "2020-08-01T14:58:37+0000" }, "geometry": { "type": "Point", "coordinates": [ 36.8147, -1.2819024 ] } },
{ "type": "Feature", "properties": { "id": "337719024399532", "object_value": "object--traffic-light--general-upright", "first_seen_at": "2020-08-01T14:58:32+0000", "last_seen_at": "2020-08-01T14:58:32+0000" }, "geometry": { "type": "Point", "coordinates": [ 36.815147, -1.2820688 ] } },
{ "type": "Feature", "properties": { "id": "337721114399323", "object_value": "object--traffic-light--general-upright", "first_seen_at": "2020-08-01T14:58:32+0000", "last_seen_at": "2020-08-01T14:58:32+0000" }, "geometry": { "type": "Point", "coordinates": [ 36.814987, -1.28214 ] } },
{ "type": "Feature", "properties": { "id": "642957323329247", "object_value": "object--traffic-light--pedestrians", "first_seen_at": "2017-12-08T08:26:11+0000", "last_seen_at": "2017-12-08T08:26:11+0000" }, "geometry": { "type": "Point", "coordinates": [ 36.814663, -1.2818791 ] } },
{ "type": "Feature", "properties": { "id": "309004117380575", "object_value": "object--traffic-light--pedestrians", "first_seen_at": "2017-12-11T08:57:06+0000", "last_seen_at": "2017-12-11T08:57:06+0000" }, "geometry": { "type": "Point", "coordinates": [ 36.81479, -1.281864 ] } },
{ "type": "Feature", "properties": { "id": "309133490700971", "object_value": "object--traffic-light--general-upright", "first_seen_at": "2017-12-11T08:57:02+0000", "last_seen_at": "2017-12-11T08:57:02+0000" }, "geometry": { "type": "Point", "coordinates": [ 36.81505, -1.281886 ] } },
{ "type": "Feature", "properties": { "id": "309271904020463", "object_value": "object--traffic-light--general-upright", "first_seen_at": "2017-12-11T08:57:06+0000", "last_seen_at": "2017-12-11T08:57:06+0000" }, "geometry": { "type": "Point", "coordinates": [ 36.81481, -1.2818683 ] } },
{ "type": "Feature", "properties": { "id": "309449384002715", "object_value": "object--traffic-light--general-upright", "first_seen_at": "2017-12-11T08:57:10+0000", "last_seen_at": "2017-12-11T08:57:10+0000" }, "geometry": { "type": "Point", "coordinates": [ 36.814793, -1.2818671 ] } },
{ "type": "Feature", "properties": { "id": "337446724426762", "object_value": "object--traffic-light--pedestrians", "first_seen_at": "2020-08-01T14:59:08+0000", "last_seen_at": "2020-08-01T14:59:08+0000" }, "geometry": { "type": "Point", "coordinates": [ 36.814842, -1.2814299 ] } },
{ "type": "Feature", "properties": { "id": "337492864422148", "object_value": "object--traffic-light--general-upright", "first_seen_at": "2020-08-01T14:59:24+0000", "last_seen_at": "2020-08-01T14:59:24+0000" }, "geometry": { "type": "Point", "coordinates": [ 36.81535, -1.2817719 ] } },
{ "type": "Feature", "properties": { "id": "642815183343461", "object_value": "object--traffic-light--general-upright", "first_seen_at": "2017-12-08T08:26:07+0000", "last_seen_at": "2017-12-08T08:26:07+0000" }, "geometry": { "type": "Point", "coordinates": [ 36.814857, -1.2817072 ] } },
{ "type": "Feature", "properties": { "id": "642911910000455", "object_value": "object--traffic-light--general-upright", "first_seen_at": "2017-12-08T08:26:03+0000", "last_seen_at": "2017-12-08T08:26:03+0000" }, "geometry": { "type": "Point", "coordinates": [ 36.815025, -1.2818477 ] } },
{ "type": "Feature", "properties": { "id": "643577089933937", "object_value": "object--traffic-light--general-upright", "first_seen_at": "2017-12-08T08:26:07+0000", "last_seen_at": "2017-12-11T08:57:06+0000" }, "geometry": { "type": "Point", "coordinates": [ 36.814835, -1.2817317 ] } },
{ "type": "Feature", "properties": { "id": "309090360705284", "object_value": "object--traffic-light--general-upright", "first_seen_at": "2017-12-11T08:58:22+0000", "last_seen_at": "2017-12-11T08:58:22+0000" }, "geometry": { "type": "Point", "coordinates": [ 36.81499, -1.2815958 ] } },
{ "type": "Feature", "properties": { "id": "309427594004894", "object_value": "object--traffic-light--pedestrians", "first_seen_at": "2017-12-11T08:57:18+0000", "last_seen_at": "2017-12-11T08:57:18+0000" }, "geometry": { "type": "Point", "coordinates": [ 36.814663, -1.2817484 ] } },
{ "type": "Feature", "properties": { "id": "309435024004151", "object_value": "object--traffic-light--general-upright", "first_seen_at": "2017-12-11T08:57:06+0000", "last_seen_at": "2017-12-11T08:57:06+0000" }, "geometry": { "type": "Point", "coordinates": [ 36.81504, -1.2817475 ] } },
{ "type": "Feature", "properties": { "id": "1099133537277222", "object_value": "object--traffic-light--pedestrians", "first_seen_at": "2017-12-08T08:26:23+0000", "last_seen_at": "2017-12-08T08:26:23+0000" }, "geometry": { "type": "Point", "coordinates": [ 36.814743, -1.2815733 ] } },
{ "type": "Feature", "properties": { "id": "312719003559989", "object_value": "object--traffic-light--general-upright", "first_seen_at": "2017-12-08T08:18:55+0000", "last_seen_at": "2017-12-08T08:18:55+0000" }, "geometry": { "type": "Point", "coordinates": [ 36.82032, -1.2928925 ] } },
{ "type": "Feature", "properties": { "id": "312731653558724", "object_value": "object--traffic-light--general-upright", "first_seen_at": "2017-12-08T08:18:51+0000", "last_seen_at": "2017-12-08T08:18:51+0000" }, "geometry": { "type": "Point", "coordinates": [ 36.820488, -1.2930442 ] } },
{ "type": "Feature", "properties": { "id": "749222692405815", "object_value": "object--traffic-light--general-upright", "first_seen_at": "2020-08-01T14:55:43+0000", "last_seen_at": "2020-08-01T14:55:43+0000" }, "geometry": { "type": "Point", "coordinates": [ 36.820354, -1.2926534 ] } },
{ "type": "Feature", "properties": { "id": "749339499060801", "object_value": "object--traffic-light--general-upright", "first_seen_at": "2020-08-01T14:55:47+0000", "last_seen_at": "2020-08-01T14:55:47+0000" }, "geometry": { "type": "Point", "coordinates": [ 36.820717, -1.2927247 ] } },
{ "type": "Feature", "properties": { "id": "749352585726159", "object_value": "object--traffic-light--general-upright", "first_seen_at": "2020-08-01T14:55:44+0000", "last_seen_at": "2020-08-01T14:55:44+0000" }, "geometry": { "type": "Point", "coordinates": [ 36.82037, -1.2926474 ] } },
{ "type": "Feature", "properties": { "id": "749402125721205", "object_value": "object--traffic-light--general-upright", "first_seen_at": "2020-08-01T14:55:45+0000", "last_seen_at": "2020-08-01T14:55:45+0000" }, "geometry": { "type": "Point", "coordinates": [ 36.82045, -1.2926441 ] } },
{ "type": "Feature", "properties": { "id": "749445249050226", "object_value": "object--traffic-light--pedestrians", "first_seen_at": "2020-08-01T14:55:44+0000", "last_seen_at": "2020-08-01T14:55:44+0000" }, "geometry": { "type": "Point", "coordinates": [ 36.82029, -1.2925104 ] } },
{ "type": "Feature", "properties": { "id": "749993455662072", "object_value": "object--traffic-light--general-upright", "first_seen_at": "2020-08-01T14:55:44+0000", "last_seen_at": "2020-08-01T14:55:44+0000" }, "geometry": { "type": "Point", "coordinates": [ 36.820362, -1.292646 ] } },
{ "type": "Feature", "properties": { "id": "487740582561377", "object_value": "object--traffic-light--general-upright", "first_seen_at": "2020-08-01T14:56:03+0000", "last_seen_at": "2020-08-01T14:56:03+0000" }, "geometry": { "type": "Point", "coordinates": [ 36.820206, -1.2928512 ] } },
{ "type": "Feature", "properties": { "id": "1099905040504004", "object_value": "object--traffic-light--general-upright", "first_seen_at": "2017-12-11T09:52:39+0000", "last_seen_at": "2017-12-11T09:52:39+0000" }, "geometry": { "type": "Point", "coordinates": [ 36.820286, -1.29245 ] } },
{ "type": "Feature", "properties": { "id": "1099949447166230", "object_value": "object--traffic-light--general-upright", "first_seen_at": "2017-12-11T09:52:39+0000", "last_seen_at": "2017-12-11T09:52:39+0000" }, "geometry": { "type": "Point", "coordinates": [ 36.820282, -1.2924466 ] } },
{ "type": "Feature", "properties": { "id": "1100005263827315", "object_value": "object--traffic-light--general-upright", "first_seen_at": "2017-12-11T09:52:35+0000", "last_seen_at": "2017-12-11T09:52:35+0000" }, "geometry": { "type": "Point", "coordinates": [ 36.820347, -1.2926443 ] } },
{ "type": "Feature", "properties": { "id": "774316446784058", "object_value": "object--traffic-light--general-upright", "first_seen_at": "2020-08-01T14:57:05+0000", "last_seen_at": "2020-08-01T14:57:05+0000" }, "geometry": { "type": "Point", "coordinates": [ 36.817394, -1.2870207 ] } },
{ "type": "Feature", "properties": { "id": "774385130110523", "object_value": "object--traffic-light--general-upright", "first_seen_at": "2020-08-01T14:57:09+0000", "last_seen_at": "2020-08-01T14:57:09+0000" }, "geometry": { "type": "Point", "coordinates": [ 36.817505, -1.2869017 ] } },
{ "type": "Feature", "properties": { "id": "144426441046997", "object_value": "object--traffic-light--general-upright", "first_seen_at": "2017-12-08T08:20:03+0000", "last_seen_at": "2017-12-08T08:20:03+0000" }, "geometry": { "type": "Point", "coordinates": [ 36.817467, -1.2868737 ] } },
{ "type": "Feature", "properties": { "id": "144182741071367", "object_value": "object--traffic-light--general-upright", "first_seen_at": "2017-12-08T08:20:03+0000", "last_seen_at": "2017-12-08T08:20:03+0000" }, "geometry": { "type": "Point", "coordinates": [ 36.817394, -1.286736 ] } },
{ "type": "Feature", "properties": { "id": "144221594400815", "object_value": "object--traffic-light--general-upright", "first_seen_at": "2017-12-08T08:20:03+0000", "last_seen_at": "2017-12-08T08:20:03+0000" }, "geometry": { "type": "Point", "coordinates": [ 36.817375, -1.2867785 ] } },
{ "type": "Feature", "properties": { "id": "144274184395556", "object_value": "object--traffic-light--general-upright", "first_seen_at": "2017-12-08T08:21:11+0000", "last_seen_at": "2017-12-08T08:21:11+0000" }, "geometry": { "type": "Point", "coordinates": [ 36.817474, -1.286812 ] } },
{ "type": "Feature", "properties": { "id": "144334257722882", "object_value": "object--traffic-light--pedestrians", "first_seen_at": "2017-12-08T08:21:11+0000", "last_seen_at": "2020-08-01T14:57:08+0000" }, "geometry": { "type": "Point", "coordinates": [ 36.817482, -1.2868674 ] } },
{ "type": "Feature", "properties": { "id": "144342721055369", "object_value": "object--traffic-light--general-upright", "first_seen_at": "2017-12-08T08:20:03+0000", "last_seen_at": "2017-12-08T08:20:03+0000" }, "geometry": { "type": "Point", "coordinates": [ 36.81753, -1.2866302 ] } },
{ "type": "Feature", "properties": { "id": "218076080122752", "object_value": "object--traffic-light--general-upright", "first_seen_at": "2017-12-08T08:22:27+0000", "last_seen_at": "2017-12-08T08:22:27+0000" }, "geometry": { "type": "Point", "coordinates": [ 36.817364, -1.286788 ] } },
{ "type": "Feature", "properties": { "id": "1103511620142472", "object_value": "object--traffic-light--general-upright", "first_seen_at": "2017-12-11T09:43:26+0000", "last_seen_at": "2017-12-11T09:43:26+0000" }, "geometry": { "type": "Point", "coordinates": [ 36.817356, -1.2863806 ] } },
{ "type": "Feature", "properties": { "id": "1199866320460224", "object_value": "object--traffic-light--general-upright", "first_seen_at": "2017-12-12T09:39:04+0000", "last_seen_at": "2017-12-12T09:39:04+0000" }, "geometry": { "type": "Point", "coordinates": [ 36.817005, -1.2866961 ] } },
{ "type": "Feature", "properties": { "id": "301485811502241", "object_value": "object--traffic-light--pedestrians", "first_seen_at": "2015-09-12T07:46:12+0000", "last_seen_at": "2015-09-12T07:46:12+0000" }, "geometry": { "type": "Point", "coordinates": [ 36.824055, -1.2995175 ] } },
{ "type": "Feature", "properties": { "id": "301528628164626", "object_value": "object--traffic-light--general-upright", "first_seen_at": "2015-09-12T07:46:12+0000", "last_seen_at": "2015-09-12T07:46:12+0000" }, "geometry": { "type": "Point", "coordinates": [ 36.824192, -1.2996949 ] } },
{ "type": "Feature", "properties": { "id": "301573784826777", "object_value": "object--traffic-light--general-upright", "first_seen_at": "2015-09-12T07:46:18+0000", "last_seen_at": "2017-12-08T08:01:01+0000" }, "geometry": { "type": "Point", "coordinates": [ 36.8241, -1.2999967 ] } },
{ "type": "Feature", "properties": { "id": "301625444821611", "object_value": "object--traffic-light--general-upright", "first_seen_at": "2015-09-12T07:46:10+0000", "last_seen_at": "2015-09-12T07:46:10+0000" }, "geometry": { "type": "Point", "coordinates": [ 36.82405, -1.2995163 ] } },
{ "type": "Feature", "properties": { "id": "301627938154695", "object_value": "object--traffic-light--general-upright", "first_seen_at": "2015-09-12T07:46:12+0000", "last_seen_at": "2015-09-12T07:46:12+0000" }, "geometry": { "type": "Point", "coordinates": [ 36.823883, -1.2997411 ] } },
{ "type": "Feature", "properties": { "id": "301633284820827", "object_value": "object--traffic-light--general-upright", "first_seen_at": "2015-09-12T07:46:14+0000", "last_seen_at": "2015-09-12T07:46:14+0000" }, "geometry": { "type": "Point", "coordinates": [ 36.824085, -1.2997339 ] } },
{ "type": "Feature", "properties": { "id": "301709961479826", "object_value": "object--traffic-light--general-upright", "first_seen_at": "2015-09-12T07:46:12+0000", "last_seen_at": "2015-09-12T07:46:12+0000" }, "geometry": { "type": "Point", "coordinates": [ 36.82417, -1.2997024 ] } },
{ "type": "Feature", "properties": { "id": "143451477769387", "object_value": "object--traffic-light--general-upright", "first_seen_at": "2017-12-08T08:01:13+0000", "last_seen_at": "2017-12-08T08:01:13+0000" }, "geometry": { "type": "Point", "coordinates": [ 36.82412, -1.3000479 ] } },
{ "type": "Feature", "properties": { "id": "226731398871129", "object_value": "object--traffic-light--general-upright", "first_seen_at": "2017-12-08T08:02:17+0000", "last_seen_at": "2017-12-08T08:02:17+0000" }, "geometry": { "type": "Point", "coordinates": [ 36.82408, -1.2998248 ] } },
{ "type": "Feature", "properties": { "id": "226855528858716", "object_value": "object--traffic-light--general-upright", "first_seen_at": "2017-12-08T08:01:53+0000", "last_seen_at": "2017-12-08T08:01:53+0000" }, "geometry": { "type": "Point", "coordinates": [ 36.824078, -1.2997829 ] } },
{ "type": "Feature", "properties": { "id": "226898525521083", "object_value": "object--traffic-light--general-upright", "first_seen_at": "2017-12-08T08:01:57+0000", "last_seen_at": "2017-12-08T08:01:57+0000" }, "geometry": { "type": "Point", "coordinates": [ 36.824085, -1.2998041 ] } },
{ "type": "Feature", "properties": { "id": "997001891036828", "object_value": "object--traffic-light--general-upright", "first_seen_at": "2017-12-11T08:35:54+0000", "last_seen_at": "2017-12-11T08:35:54+0000" }, "geometry": { "type": "Point", "coordinates": [ 36.82386, -1.3001719 ] } },
{ "type": "Feature", "properties": { "id": "472610687324389", "object_value": "object--traffic-light--pedestrians", "first_seen_at": "2017-12-12T07:28:10+0000", "last_seen_at": "2017-12-12T07:28:10+0000" }, "geometry": { "type": "Point", "coordinates": [ 36.823833, -1.2998474 ] } },
{ "type": "Feature", "properties": { "id": "949376829166385", "object_value": "object--traffic-light--general-upright", "first_seen_at": "2020-08-01T14:53:19+0000", "last_seen_at": "2020-08-01T14:53:19+0000" }, "geometry": { "type": "Point", "coordinates": [ 36.82169, -1.2871696 ] } },
{ "type": "Feature", "properties": { "id": "949449109159157", "object_value": "object--traffic-light--general-upright", "first_seen_at": "2020-08-01T14:53:22+0000", "last_seen_at": "2020-08-01T14:53:22+0000" }, "geometry": { "type": "Point", "coordinates": [ 36.821705, -1.2871919 ] } },
{ "type": "Feature", "properties": { "id": "949516932485708", "object_value": "object--traffic-light--general-upright", "first_seen_at": "2020-08-01T14:53:20+0000", "last_seen_at": "2020-08-01T14:53:20+0000" }, "geometry": { "type": "Point", "coordinates": [ 36.821712, -1.2872187 ] } },
{ "type": "Feature", "properties": { "id": "949557192481682", "object_value": "object--traffic-light--general-upright", "first_seen_at": "2020-08-01T14:53:20+0000", "last_seen_at": "2020-08-01T14:53:20+0000" }, "geometry": { "type": "Point", "coordinates": [ 36.821697, -1.2871706 ] } },
{ "type": "Feature", "properties": { "id": "856669514936138", "object_value": "object--traffic-light--general-upright", "first_seen_at": "2020-08-01T14:53:53+0000", "last_seen_at": "2020-08-01T14:53:53+0000" }, "geometry": { "type": "Point", "coordinates": [ 36.821823, -1.287226 ] } },
{ "type": "Feature", "properties": { "id": "857383844864705", "object_value": "object--traffic-light--general-upright", "first_seen_at": "2020-08-01T14:53:52+0000", "last_seen_at": "2020-08-01T14:53:52+0000" }, "geometry": { "type": "Point", "coordinates": [ 36.82178, -1.2873167 ] } },
{ "type": "Feature", "properties": { "id": "550660322985495", "object_value": "object--traffic-light--general-upright", "first_seen_at": "2020-08-01T14:53:57+0000", "last_seen_at": "2020-08-01T14:53:57+0000" }, "geometry": { "type": "Point", "coordinates": [ 36.821842, -1.2872463 ] } },
{ "type": "Feature", "properties": { "id": "1025328731628004", "object_value": "object--traffic-light--general-upright", "first_seen_at": "2017-12-11T15:48:42+0000", "last_seen_at": "2017-12-11T15:48:42+0000" }, "geometry": { "type": "Point", "coordinates": [ 36.82589, -1.2900541 ] } },
{ "type": "Feature", "properties": { "id": "886421751936791", "object_value": "object--traffic-light--general-horizontal", "first_seen_at": "2017-12-11T16:06:51+0000", "last_seen_at": "2017-12-11T16:06:51+0000" }, "geometry": { "type": "Point", "coordinates": [ 36.826992, -1.2894448 ] } }
]
}
